OBJECT_NAME,OBJECT_ID,EPOCH,MEAN_MOTION,ECCENTRICITY,INCLINATION,RA_OF_ASC_NODE,ARG_OF_PERICENTER,MEAN_ANOMALY,EPHEMERIS_TYPE,CLASSIFICATION_TYPE,NORAD_CAT_ID,ELEMENT_SET_NO,REV_AT_EPOCH,BSTAR,MEAN_MOTION_DOT,MEAN_MOTION_DDOT
EYESAT A (AO-27),1993-061C,2026-06-16T17:17:03.562368,14.30942178,.0009538,98.6881,235.1339,100.9121,259.3135,0,U,22825,999,70693,.49163E-4,.85E-6,0
ITAMSAT (IO-26),1993-061D,2026-06-16T18:28:16.456224,14.31369092,.0010072,98.6829,235.1008,86.0434,274.1901,0,U,22826,999,70725,.46477E-4,.79E-6,0
RADIO ROSTO (RS15),1994-085A,2026-06-16T20:23:52.548000,11.27583472,.0155939,64.8179,303.7617,3.9390,356.2723,0,U,23439,999,29586,-.20163E-3,-.5E-6,0
JAS-2 (FO-29),1996-046B,2026-06-16T20:49:13.008288,13.53274370,.0350901,98.5239,16.7835,97.2592,266.8568,0,U,24278,999,47312,.37591E-4,.5E-7,0
FORTE,1997-047A,2026-06-16T19:33:04.128768,14.27944944,.0024633,69.9540,14.8630,277.8624,81.9702,0,U,24920,999,49863,.65776E-4,.106E-5,0
TECHSAT 1B (GO-32),1998-043D,2026-06-16T20:29:16.301760,14.24428316,.0001052,99.0067,160.6038,163.3790,196.7423,0,U,25397,999,45128,.34602E-4,.33E-6,0
ISS (ZARYA),1998-067A,2026-06-16T20:48:26.492256,15.49265361,.0004749,51.6339,301.6783,194.3570,165.7284,0,U,25544,999,57170,.15124E-3,.7968E-4,0
IMAGE,2000-017A,2026-06-11T08:17:58.695072,1.68665984,.7436383,94.2241,315.2958,288.4674,8.8959,0,U,26113,999,16140,.22926E-1,.11E-6,0
CLUSTER II-FM7 (SAMBA),2000-041A,2026-06-17T03:20:03.973632,0.44868040,.9054007,149.9159,50.9864,268.1291,359.6411,0,U,26410,999,2030,0,.13373E-3,0
CLUSTER II-FM8 (TANGO),2000-045B,2026-06-15T04:28:52.372128,0.44400569,.9056828,150.1502,51.7537,268.7236,2.8065,0,U,26464,999,2030,0,.11728E-3,0
ODIN,2001-007A,2026-06-16T15:35:51.695232,15.75626602,.0006693,97.3825,208.5575,143.1116,217.0611,0,U,26702,999,38931,.98033E-3,.15173E-2,0
OMNI-M1,2001-026A,2026-06-16T05:01:03.889056,3.92401638,.0014194,44.8307,245.4893,53.4474,306.7446,0,U,26857,999,20553,0,-.1E-7,0
PCSAT (NO-44),2001-043C,2026-06-16T14:24:47.672064,14.31955906,.0006082,67.0506,245.7892,264.6522,95.3886,0,U,26931,999,29036,.58858E-4,.75E-6,0
PROBA-1,2001-049B,2026-06-16T20:54:28.484928,15.07492899,.0056446,97.9595,176.3922,122.8667,237.8011,0,U,26958,999,34357,.77829E-4,.1152E-4,0
SAUDISAT 1C (SO-50),2002-058C,2026-06-16T14:46:48.425664,14.83045885,.0075275,64.5510,130.7531,262.5800,96.6748,0,U,27607,999,26437,.11462E-3,.824E-5,0
CORIOLIS,2003-001A,2026-06-16T18:35:07.368576,14.19944641,.0013351,98.7125,174.6654,210.0344,150.0068,0,U,27640,999,21416,.54658E-4,.73E-6,0
CUTE-1 (CO-55),2003-031E,2026-06-16T19:50:03.732576,14.24335514,.0009511,98.6736,176.3898,179.0123,181.1076,0,U,27844,999,19162,.11849E-3,.23E-5,0
CUBESAT XI-IV (CO-57),2003-031J,2026-06-16T17:51:58.360608,14.23620607,.0008995,98.6766,176.0218,198.3693,161.7162,0,U,27848,999,19131,.10473E-3,.195E-5,0
MOZHAETS 4 (RS22),2003-042A,2026-06-16T21:09:03.881088,14.73466646,.0009933,98.3461,352.2313,270.9686,196.4351,0,U,27939,999,21550,.11599E-3,.699E-5,0
